{"fetched_at":"2026-03-29T02:12:04Z","count":15717,"tles":[{"name":"KANOPUS-V 5","line1":"1 43876U 18111A   26085.98851392  .00000049  00000+0  50483-5 0  9993","line2":"2 43876  97.3632 353.1625 0001549  93.9920 266.1493 15.22543110402276","category":"Other"}]}