{
  "norad_id": 43876,
  "name": "KANOPUS-V 5",
  "history": [
    {
      "epoch": "2026-03-26T23:43:27.602688",
      "apogee_km": 499.2380612365214,
      "perigee_km": 497.1077804230481,
      "latitude_deg": 57.20683942502278,
      "longitude_deg": -89.50266367988661,
      "semi_major_axis_km": 6876.3099208297845,
      "eccentricity": 0.0001549,
      "inclination_deg": 97.3632,
      "raan_deg": 353.1625,
      "arg_perigee_deg": 93.992,
      "mean_anomaly_deg": 266.1493,
      "mean_motion_rev_day": 15.2254311
    }
  ]
}